[{"OBJECT_NAME":"STARLINK-35930","OBJECT_ID":"2025-270M","EPOCH":"2026-03-09T00:25:50.755584","MEAN_MOTION":15.27617096,"ECCENTRICITY":0.00024815,"INCLINATION":43.0035,"RA_OF_ASC_NODE":59.9242,"ARG_OF_PERICENTER":292.8143,"MEAN_ANOMALY":67.2446,"EPHEMERIS_TYPE":0,"CLASSIFICATION_TYPE":"U","NORAD_CAT_ID":66599,"ELEMENT_SET_NO":999,"REV_AT_EPOCH":1760,"BSTAR":0.001451001,"MEAN_MOTION_DOT":0.0003993,"MEAN_MOTION_DDOT":0},{"OBJECT_NAME":"CZ-6A DEB","OBJECT_ID":"2024-140RA","EPOCH":"2026-03-09T01:51:18.259488","MEAN_MOTION":15.31763252,"ECCENTRICITY":0.00411794,"INCLINATION":89.1856,"RA_OF_ASC_NODE":296.0787,"ARG_OF_PERICENTER":96.6516,"MEAN_ANOMALY":263.9425,"EPHEMERIS_TYPE":0,"CLASSIFICATION_TYPE":"U","NORAD_CAT_ID":61156,"ELEMENT_SET_NO":999,"REV_AT_EPOCH":8391,"BSTAR":0.0079173326,"MEAN_MOTION_DOT":0.00256788,"MEAN_MOTION_DDOT":0}]
